QZS-1R                  
1 49336U 21096A   23282.80605097 -.00000218  00000+0  00000+0 0  9995
2 49336  35.4267  94.3698 0745799 269.9397  78.9859  1.00281195  7166
